1 10138U 00000A   26090.39631291  .00000000  00000-0 0.0000000 0  9993
2 10138  97.0000 230.0000 0001000   0.0000 270.0000 14.73473854    13
1 10139U 00000A   26090.39631291  .00000000  00000-0 0.0000000 0  9994
2 10139  97.0000 230.0000 0001000   0.0000 315.0000 14.73473854    14
1 10140U 00000A   26090.39631291  .00000000  00000-0 0.0000000 0  9996
2 10140  97.0000 275.0000 0001000   0.0000   0.0000 14.73473854    16
1 10141U 00000A   26090.39631291  .00000000  00000-0 0.0000000 0  9997
2 10141  97.0000 275.0000 0001000   0.0000  45.0000 14.73473854    16
1 10142U 00000A   26090.39631291  .00000000  00000-0 0.0000000 0  9998
2 10142  97.0000 275.0000 0001000   0.0000  90.0000 14.73473854    17
1 10143U 00000A   26090.39631291  .00000000  00000-0 0.0000000 0  9999
2 10143  97.0000 275.0000 0001000   0.0000 135.0000 14.73473854    18
1 10144U 00000A   26090.39631291  .00000000  00000-0 0.0000000 0  9990
2 10144  97.0000 275.0000 0001000   0.0000 180.0000 14.73473854    19
1 10145U 00000A   26090.39631291  .00000000  00000-0 0.0000000 0  9991
2 10145  97.0000 275.0000 0001000   0.0000 225.0000 14.73473854    10
1 10146U 00000A   26090.39631291  .00000000  00000-0 0.0000000 0  9992
2 10146  97.0000 275.0000 0001000   0.0000 270.0000 14.73473854    11
1 10147U 00000A   26090.39631291  .00000000  00000-0 0.0000000 0  9993
2 10147  97.0000 275.0000 0001000   0.0000 315.0000 14.73473854    12
1 10148U 00000A   26090.39631291  .00000000  00000-0 0.0000000 0  9994
2 10148  97.0000 320.0000 0001000   0.0000   0.0000 14.73473854    15
1 10149U 00000A   26090.39631291  .00000000  00000-0 0.0000000 0  9995
2 10149  97.0000 320.0000 0001000   0.0000  45.0000 14.73473854    15
1 10150U 00000A   26090.39631291  .00000000  00000-0 0.0000000 0  9997
2 10150  97.0000 320.0000 0001000   0.0000  90.0000 14.73473854    17
1 10151U 00000A   26090.39631291  .00000000  00000-0 0.0000000 0  9998
2 10151  97.0000 320.0000 0001000   0.0000 135.0000 14.73473854    18
1 10152U 00000A   26090.39631291  .00000000  00000-0 0.0000000 0  9999
2 10152  97.0000 320.0000 0001000   0.0000 180.0000 14.73473854    19
1 10153U 00000A   26090.39631291  .00000000  00000-0 0.0000000 0  9990
2 10153  97.0000 320.0000 0001000   0.0000 225.0000 14.73473854    10
1 10154U 00000A   26090.39631291  .00000000  00000-0 0.0000000 0  9991
2 10154  97.0000 320.0000 0001000   0.0000 270.0000 14.73473854    11
1 10155U 00000A   26090.39631291  .00000000  00000-0 0.0000000 0  9992
2 10155  97.0000 320.0000 0001000   0.0000 315.0000 14.73473854    12
1 10156U 00000A   26090.39631291  .00000000  00000-0 0.0000000 0  9993
2 10156  10.0000  77.0000 0001000   0.0000   0.0000 13.98210060    12
1 10157U 00000A   26090.39631291  .00000000  00000-0 0.0000000 0  9994
2 10157  10.0000 167.0000 0001000   0.0000   0.0000 13.98210060    13
1 10158U 00000A   26090.39631291  .00000000  00000-0 0.0000000 0  9995
2 10158  10.0000 257.0000 0001000   0.0000   0.0000 13.98210060    14
1 10159U 00000A   26090.39631291  .00000000  00000-0 0.0000000 0  9996
2 10159  10.0000 347.0000 0001000   0.0000   0.0000 13.98210060    15
1 10160U 00000A   26090.39631291  .00000000  00000-0 0.0000000 0  9998
2 10160  25.0000  59.0000 0001000   0.0000   0.0000 13.98210060    13
1 10161U 00000A   26090.39631291  .00000000  00000-0 0.0000000 0  9999
2 10161  25.0000 149.0000 0001000   0.0000   0.0000 13.98210060    14
1 10162U 00000A   26090.39631291  .00000000  00000-0 0.0000000 0  9990
2 10162  25.0000 239.0000 0001000   0.0000   0.0000 13.98210060    15
1 10163U 00000A   26090.39631291  .00000000  00000-0 0.0000000 0  9991
2 10163  25.0000 329.0000 0001000   0.0000   0.0000 13.98210060    16
1 10164U 00000A   26090.39631291  .00000000  00000-0 0.0000000 0  9992
2 10164  40.0000  41.0000 0001000   0.0000   0.0000 13.98210060    15
1 10165U 00000A   26090.39631291  .00000000  00000-0 0.0000000 0  9993
2 10165  40.0000 131.0000 0001000   0.0000   0.0000 13.98210060    16
1 10166U 00000A   26090.39631291  .00000000  00000-0 0.0000000 0  9994
2 10166  40.0000 221.0000 0001000   0.0000   0.0000 13.98210060    17
1 10167U 00000A   26090.39631291  .00000000  00000-0 0.0000000 0  9995
2 10167  40.0000 311.0000 0001000   0.0000   0.0000 13.98210060    18
1 10168U 00000A   26090.39631291  .00000000  00000-0 0.0000000 0  9996
2 10168  50.0000  23.0000 0001000   0.0000   0.0000 13.98210060    10
1 10169U 00000A   26090.39631291  .00000000  00000-0 0.0000000 0  9997
2 10169  50.0000 113.0000 0001000   0.0000   0.0000 13.98210060    11
1 10170U 00000A   26090.39631291  .00000000  00000-0 0.0000000 0  9999
2 10170  50.0000 203.0000 0001000   0.0000   0.0000 13.98210060    13
1 10171U 00000A   26090.39631291  .00000000  00000-0 0.0000000 0  9990
2 10171  50.0000 293.0000 0001000   0.0000   0.0000 13.98210060    13
1 10172U 00000A   26090.39631291  .00000000  00000-0 0.0000000 0  9991
2 10172  60.0000   5.0000 0001000   0.0000   0.0000 13.98210060    16
1 10173U 00000A   26090.39631291  .00000000  00000-0 0.0000000 0  9992
2 10173  60.0000  95.0000 0001000   0.0000   0.0000 13.98210060    16
1 10174U 00000A   26090.39631291  .00000000  00000-0 0.0000000 0  9993
2 10174  60.0000 185.0000 0001000   0.0000   0.0000 13.98210060    17
1 10175U 00000A   26090.39631291  .00000000  00000-0 0.0000000 0  9994
2 10175  60.0000 275.0000 0001000   0.0000   0.0000 13.98210060    18
1 10176U 00000A   26090.39631291  .00000000  00000-0 0.0000000 0  9995
2 10176  98.0000 196.0000 0001000   0.0000   0.0000 13.98210060    12
1 10177U 00000A   26090.39631291  .00000000  00000-0 0.0000000 0  9996
2 10177  98.0000 196.0000 0001000   0.0000  90.0000 13.98210060    12
1 10178U 00000A   26090.39631291  .00000000  00000-0 0.0000000 0  9997
2 10178  98.0000 196.0000 0001000   0.0000 180.0000 13.98210060    13
1 10179U 00000A   26090.39631291  .00000000  00000-0 0.0000000 0  9998
2 10179  98.0000 196.0000 0001000   0.0000 270.0000 13.98210060    14
1 10180U 00000A   26090.39631291  .00000000  00000-0 0.0000000 0  9990
2 10180  98.0000 241.0000 0001000   0.0000   0.0000 13.98210060    18
1 10181U 00000A   26090.39631291  .00000000  00000-0 0.0000000 0  9991
2 10181  98.0000 241.0000 0001000   0.0000  90.0000 13.98210060    18
1 10182U 00000A   26090.39631291  .00000000  00000-0 0.0000000 0  9992
2 10182  98.0000 241.0000 0001000   0.0000 180.0000 13.98210060    19
1 10183U 00000A   26090.39631291  .00000000  00000-0 0.0000000 0  9993
2 10183  98.0000 241.0000 0001000   0.0000 270.0000 13.98210060    10
1 10184U 00000A   26090.39631291  .00000000  00000-0 0.0000000 0  9994
2 10184  98.0000 286.0000 0001000   0.0000   0.0000 13.98210060    11
1 10185U 00000A   26090.39631291  .00000000  00000-0 0.0000000 0  9995
2 10185  98.0000 286.0000 0001000   0.0000  90.0000 13.98210060    11
1 10186U 00000A   26090.39631291  .00000000  00000-0 0.0000000 0  9996
2 10186  98.0000 286.0000 0001000   0.0000 180.0000 13.98210060    12
1 10187U 00000A   26090.39631291  .00000000  00000-0 0.0000000 0  9997
2 10187  98.0000 286.0000 0001000   0.0000 270.0000 13.98210060    13
1 10188U 00000A   26090.39631291  .00000000  00000-0 0.0000000 0  9998
2 10188  98.0000 331.0000 0001000   0.0000   0.0000 13.98210060    16
1 10189U 00000A   26090.39631291  .00000000  00000-0 0.0000000 0  9999
2 10189  98.0000 331.0000 0001000   0.0000  90.0000 13.98210060    16
1 10190U 00000A   26090.39631291  .00000000  00000-0 0.0000000 0  9991
2 10190  98.0000 331.0000 0001000   0.0000 180.0000 13.98210060    18
1 10191U 00000A   26090.39631291  .00000000  00000-0 0.0000000 0  9992
2 10191  98.0000 331.0000 0001000   0.0000 270.0000 13.98210060    19
1 10192U 00000A   26090.39631291  .00000000  00000-0 0.0000000 0  9993
2 10192  98.0000  16.0000 0001000   0.0000   0.0000 13.98210060    11
1 10193U 00000A   26090.39631291  .00000000  00000-0 0.0000000 0  9994
2 10193  98.0000  16.0000 0001000   0.0000  90.0000 13.98210060    11
1 10194U 00000A   26090.39631291  .00000000  00000-0 0.0000000 0  9995
2 10194  98.0000  16.0000 0001000   0.0000 180.0000 13.98210060    12
1 10195U 00000A   26090.39631291  .00000000  00000-0 0.0000000 0  9996
2 10195  98.0000  16.0000 0001000   0.0000 270.0000 13.98210060    13
1 10196U 00000A   26090.39631291  .00000000  00000-0 0.0000000 0  9997
2 10196  98.0000  61.0000 0001000   0.0000   0.0000 13.98210060    15
1 10197U 00000A   26090.39631291  .00000000  00000-0 0.0000000 0  9998
2 10197  98.0000  61.0000 0001000   0.0000  90.0000 13.98210060    15
1 10198U 00000A   26090.39631291  .00000000  00000-0 0.0000000 0  9999
2 10198  98.0000  61.0000 0001000   0.0000 180.0000 13.98210060    16
1 10199U 00000A   26090.39631291  .00000000  00000-0 0.0000000 0  9990
2 10199  98.0000  61.0000 0001000   0.0000 270.0000 13.98210060    17
1 10200U 00000A   26090.39631291  .00000000  00000-0 0.0000000 0  9993
2 10200  98.0000 106.0000 0001000   0.0000   0.0000 13.98210060    11
1 10201U 00000A   26090.39631291  .00000000  00000-0 0.0000000 0  9994
2 10201  98.0000 106.0000 0001000   0.0000  90.0000 13.98210060    11
1 10202U 00000A   26090.39631291  .00000000  00000-0 0.0000000 0  9995
2 10202  98.0000 106.0000 0001000   0.0000 180.0000 13.98210060    12
1 10203U 00000A   26090.39631291  .00000000  00000-0 0.0000000 0  9996
2 10203  98.0000 106.0000 0001000   0.0000 270.0000 13.98210060    13
1 10204U 00000A   26090.39631291  .00000000  00000-0 0.0000000 0  9997
2 10204  98.0000 151.0000 0001000   0.0000   0.0000 13.98210060    15
1 10205U 00000A   26090.39631291  .00000000  00000-0 0.0000000 0  9998
2 10205  98.0000 151.0000 0001000   0.0000  90.0000 13.98210060    15
1 10206U 00000A   26090.39631291  .00000000  00000-0 0.0000000 0  9999
2 10206  98.0000 151.0000 0001000   0.0000 180.0000 13.98210060    16
